NORAD_CAT_ID,OBJECT_NAME,OBJECT_TYPE,EPOCH,MEAN_MOTION,ECCENTRICITY,INCLINATION,RA_OF_ASC_NODE,ARG_OF_PERICENTER,MEAN_ANOMALY,BSTAR,MEAN_MOTION_DOT,MEAN_MOTION_DDOT,TLE_LINE0,TLE_LINE1,TLE_LINE2,SEMIMAJOR_AXIS,PERIOD,APOGEE,PERIGEE,DECAYED
52478.0,STARLINK-3825,PAYLOAD,2023-12-14 16:28:49,15.08836557,0.0001337,53.2181,122.3051,87.8145,272.3,2.7596e-05,1.51e-06,0.0,0 STARLINK-3825,1 52478U 22049AD  23348.68668605  .00000151  00000-0  27596-4 0  9998,2 52478  53.2181 122.3051 0001337  87.8145 272.3000 15.08836557 89222,6917.891,95.438,540.681,538.831,0.0
52478.0,STARLINK-3825,PAYLOAD,2023-12-15 14:44:13,15.08840263,0.0001392,53.2182,118.1417,80.9272,279.1877,-4.3386e-06,-3.57e-06,0.0,0 STARLINK-3825,1 52478U 22049AD  23349.61404779 -.00000357  00000-0 -43386-5 0  9998,2 52478  53.2182 118.1417 0001392  80.9272 279.1877 15.08840263 90440,6917.88,95.438,540.708,538.782,0.0
52478.0,STARLINK-3825,PAYLOAD,2023-12-15 16:19:36,15.08840504,0.0001426,53.2183,117.8429,75.2506,284.8644,1.2686e-05,-8.6e-07,0.0,0 STARLINK-3825,1 52478U 22049AD  23349.68028735 -.00000086  00000-0  12686-4 0  9995,2 52478  53.2183 117.8429 0001426  75.2506 284.8644 15.08840504 90459,6917.879,95.438,540.73,538.757,0.0
52478.0,STARLINK-3825,PAYLOAD,2023-12-16 14:35:00,15.08840647,0.0001574,53.2181,113.6811,68.1695,291.9464,0.00011305,1.512e-05,0.0,0 STARLINK-3825,1 52478U 22049AD  23350.60764763  .00001512  00000-0  11305-3 0  9997,2 52478  53.2181 113.6811 0001574  68.1695 291.9464 15.08840647 90592,6917.878,95.438,540.832,538.655,0.0
52478.0,STARLINK-3825,PAYLOAD,2023-12-16 16:10:23,15.08842583,0.000167,53.2182,113.3833,62.7227,297.3935,0.00013152,1.806e-05,0.0,0 STARLINK-3825,1 52478U 22049AD  23350.67388648  .00001806  00000-0  13152-3 0  9996,2 52478  53.2182 113.3833 0001670  62.7227 297.3935 15.08842583 89527,6917.872,95.437,540.893,538.582,0.0
52478.0,STARLINK-3825,PAYLOAD,2023-12-17 14:25:47,15.08842949,0.0001731,53.218,109.222,62.5979,297.5189,8.7192e-05,1.1e-05,0.0,0 STARLINK-3825,1 52478U 22049AD  23351.60124880  .00001100  00000-0  87192-4 0  9999,2 52478  53.2180 109.2220 0001731  62.5979 297.5189 15.08842949 90744,6917.871,95.437,540.934,538.539,0.0
52478.0,STARLINK-3825,PAYLOAD,2023-12-17 20:47:19,15.08857451,0.0001399,53.2179,108.0314,76.9054,283.2094,0.00021711,3.171e-05,0.0,0 STARLINK-3825,1 52478U 22049AD  23351.86619495  .00003171  00000-0  21711-3 0  9992,2 52478  53.2179 108.0314 0001399  76.9054 283.2094 15.08857451 90781,6917.827,95.436,540.66,538.724,0.0
52478.0,STARLINK-3825,PAYLOAD,2023-12-18 11:05:48,15.08843153,0.0001466,53.2175,105.3569,78.8602,281.2555,6.7569e-05,7.88e-06,0.0,0 STARLINK-3825,1 52478U 22049AD  23352.46236631  .00000788  00000-0  67569-4 0  9999,2 52478  53.2175 105.3569 0001466  78.8602 281.2555 15.08843153 89797,6917.871,95.437,540.75,538.722,0.0
52478.0,STARLINK-3825,PAYLOAD,2023-12-18 12:41:11,15.08846919,0.0001511,53.218,105.0546,66.5963,293.5188,6.1395e-05,6.89e-06,0.0,0 STARLINK-3825,1 52478U 22049AD  23352.52860326  .00000689  00000-0  61395-4 0  9991,2 52478  53.2180 105.0546 0001511  66.5963 293.5188 15.08846919 90883,6917.859,95.437,540.77,538.679,0.0
52478.0,STARLINK-3825,PAYLOAD,2023-12-19 12:31:58,15.08843368,0.0001381,53.2184,100.5949,97.8964,262.2185,-2.5824e-05,-6.99e-06,0.0,0 STARLINK-3825,1 52478U 22049AD  23353.52220359 -.00000699  00000-0 -25824-4 0  9998,2 52478  53.2184 100.5949 0001381  97.8964 262.2185 15.08843368 91030,6917.87,95.437,540.69,538.78,0.0
52478.0,STARLINK-3825,PAYLOAD,2023-12-20 12:22:46,15.08836917,0.0001335,53.2179,96.129,92.2557,267.8588,-4.4472e-05,-9.96e-06,0.0,0 STARLINK-3825,1 52478U 22049AD  23354.51581240 -.00000996  00000-0 -44472-4 0  9997,2 52478  53.2179  96.1290 0001335  92.2557 267.8588 15.08836917 90106,6917.89,95.438,540.678,538.831,0.0
52478.0,STARLINK-3825,PAYLOAD,2023-12-20 13:58:10,15.08787755,0.0001669,53.2179,95.8313,102.6253,257.4926,0.00067353,0.00010432,0.0,0 STARLINK-3825,1 52478U 22049AD  23354.58206201  .00010432  00000-0  67353-3 0  9991,2 52478  53.2179  95.8313 0001669 102.6253 257.4926 15.08787755 91193,6918.04,95.441,541.06,538.75,0.0
52478.0,STARLINK-3825,PAYLOAD,2023-12-21 12:13:32,15.08843348,0.0001208,53.217,91.6726,82.9297,277.1832,0.00012102,1.639e-05,0.0,0 STARLINK-3825,1 52478U 22049AD  23355.50940744  .00001639  00000-0  12102-3 0  9992,2 52478  53.2170  91.6726 0001208  82.9297 277.1832 15.08843348 90255,6917.87,95.437,540.571,538.899,0.0
52478.0,STARLINK-3825,PAYLOAD,2023-12-22 12:04:20,15.0884234,0.0001335,53.2178,87.2097,95.3773,264.7372,0.00013039,1.788e-05,0.0,0 STARLINK-3825,1 52478U 22049AD  23356.50301179  .00001788  00000-0  13039-3 0  9991,2 52478  53.2178  87.2097 0001335  95.3773 264.7372 15.08842340 90402,6917.873,95.437,540.662,538.815,0.0
52478.0,STARLINK-3825,PAYLOAD,2023-12-22 13:39:43,15.08846089,0.0001463,53.2175,86.911,82.7962,277.3197,0.00016907,2.404e-05,0.0,0 STARLINK-3825,1 52478U 22049AD  23356.56925002  .00002404  00000-0  16907-3 0  9997,2 52478  53.2175  86.9110 0001463  82.7962 277.3197 15.08846089 91492,6917.862,95.437,540.739,538.715,0.0
52478.0,STARLINK-3825,PAYLOAD,2023-12-23 13:30:30,15.08847348,0.0001422,53.2178,82.4546,74.5233,285.5916,4.8609e-05,4.86e-06,0.0,0 STARLINK-3825,1 52478U 22049AD  23357.56285265  .00000486  00000-0  48609-4 0  9991,2 52478  53.2178  82.4546 0001422  74.5233 285.5916 15.08847348 91640,6917.858,95.437,540.707,538.739,0.0
52478.0,STARLINK-3825,PAYLOAD,2023-12-24 13:21:17,15.08846909,0.0001486,53.2182,77.9933,77.9216,282.1943,0.00018743,2.697e-05,0.0,0 STARLINK-3825,1 52478U 22049AD  23358.55644858  .00002697  00000-0  18743-3 0  9999,2 52478  53.2182  77.9933 0001486  77.9216 282.1943 15.08846909 91793,6917.859,95.437,540.752,538.696,0.0
52478.0,STARLINK-3825,PAYLOAD,2023-12-24 14:56:39,15.08856275,0.0001703,53.2199,77.6892,73.944,286.174,0.00011537,1.549e-05,0.0,0 STARLINK-3825,1 52478U 22049AD  23358.62268371  .00001549  00000-0  11537-3 0  9998,2 52478  53.2199  77.6892 0001703  73.9440 286.1740 15.08856275 90727,6917.831,95.437,540.874,538.518,0.0
52478.0,STARLINK-3825,PAYLOAD,2023-12-25 11:36:41,15.08844692,0.0001594,53.2174,73.831,94.2502,265.8673,0.00010546,1.391e-05,0.0,0 STARLINK-3825,1 52478U 22049AD  23359.48381071  .00001391  00000-0  10546-3 0  9990,2 52478  53.2174  73.8310 0001594  94.2502 265.8673 15.08844692 90859,6917.866,95.437,540.834,538.628,0.0
52478.0,STARLINK-3825,PAYLOAD,2023-12-26 11:27:28,15.08840721,0.0001408,53.2174,69.3691,84.3989,275.7164,-6.7702e-05,-1.365e-05,0.0,0 STARLINK-3825,1 52478U 22049AD  23360.47741493 -.00001365  00000-0 -67702-4 0  9999,2 52478  53.2174  69.3691 0001408  84.3989 275.7164 15.08840721 91006,6917.878,95.438,540.717,538.769,0.0
52478.0,STARLINK-3825,PAYLOAD,2023-12-26 14:38:14,15.08841997,0.0001403,53.2176,68.7741,88.0601,272.0552,-2.8138e-05,-7.36e-06,0.0,0 STARLINK-3825,1 52478U 22049AD  23360.60989427 -.00000736  00000-0 -28138-4 0  9996,2 52478  53.2176  68.7741 0001403  88.0601 272.0552 15.08841997 92103,6917.874,95.437,540.71,538.769,0.0
52478.0,STARLINK-3825,PAYLOAD,2023-12-27 09:42:52,15.08843803,0.0001488,53.2172,65.206,88.219,271.8972,0.00010504,1.384e-05,0.0,0 STARLINK-3825,1 52478U 22049AD  23361.40477618  .00001384  00000-0  10504-3 0  9994,2 52478  53.2172  65.2060 0001488  88.2190 271.8972 15.08843803 92227,6917.869,95.437,540.763,538.704,0.0
52478.0,STARLINK-3825,PAYLOAD,2023-12-28 11:09:03,15.08841528,0.0001527,53.2173,60.4482,87.4818,272.6349,0.00012793,1.749e-05,0.0,0 STARLINK-3825,1 52478U 22049AD  23362.46461830  .00001749  00000-0  12793-3 0  9997,2 52478  53.2173  60.4482 0001527  87.4818 272.6349 15.08841528 91302,6917.876,95.437,540.797,538.684,0.0
52478.0,STARLINK-3825,PAYLOAD,2023-12-29 09:24:27,15.08835826,0.0001796,53.2192,56.2901,107.9892,252.1296,5.2385e-05,5.46e-06,0.0,0 STARLINK-3825,1 52478U 22049AD  23363.39198511  .00000546  00000-0  52385-4 0  9999,2 52478  53.2192  56.2901 0001796 107.9892 252.1296 15.08835826 91443,6917.893,95.438,541.001,538.516,0.0
52478.0,STARLINK-3825,PAYLOAD,2023-12-30 10:50:37,15.08842247,0.0001578,53.2187,51.5283,89.5321,270.5852,9.0705e-05,1.156e-05,0.0,0 STARLINK-3825,1 52478U 22049AD  23364.45182140  .00001156  00000-0  90705-4 0  9994,2 52478  53.2187  51.5283 0001578  89.5321 270.5852 15.08842247 91603,6917.874,95.437,540.83,538.647,0.0
52478.0,STARLINK-3825,PAYLOAD,2023-12-30 12:26:00,15.08845441,0.0001714,53.2191,51.2278,96.9041,263.2146,8.969e-05,1.14e-05,0.0,0 STARLINK-3825,1 52478U 22049AD  23364.51805895  .00001140  00000-0  89690-4 0  9994,2 52478  53.2191  51.2278 0001714  96.9041 263.2146 15.08845441 92696,6917.864,95.437,540.914,538.543,0.0
52478.0,STARLINK-3825,PAYLOAD,2023-12-30 23:33:43,15.08833613,0.000131,53.2186,49.1495,90.6048,269.5094,3.0676e-05,2e-06,0.0,0 STARLINK-3825,1 52478U 22049AD  23364.98174866  .00000200  00000-0  30676-4 0  9998,2 52478  53.2186  49.1495 0001310  90.6048 269.5094 15.08833613 91684,6917.9,95.438,540.671,538.859,0.0
52478.0,STARLINK-3825,PAYLOAD,2023-12-31 10:41:26,15.0882232,0.0001545,53.2182,47.071,88.3393,271.7776,-4.6297e-05,-1.024e-05,0.0,0 STARLINK-3825,1 52478U 22049AD  23365.44544323 -.00001024  00000-0 -46297-4 0  9992,2 52478  53.2182  47.0710 0001545  88.3393 271.7776 15.08822320 91757,6917.934,95.439,540.868,538.731,0.0
52478.0,STARLINK-3825,PAYLOAD,2023-12-31 12:16:49,15.08825242,0.0001474,53.2179,46.7688,92.4853,267.6308,-2.449e-05,-6.78e-06,0.0,0 STARLINK-3825,1 52478U 22049AD  23365.51168059 -.00000678  00000-0 -24490-4 0  9993,2 52478  53.2179  46.7688 0001474  92.4853 267.6308 15.08825242 92843,6917.925,95.438,540.81,538.771,0.0
52478.0,STARLINK-3825,PAYLOAD,2024-01-01 08:56:49,15.08847604,0.000146,53.2176,42.9054,87.2975,272.8184,6.6955e-05,7.78e-06,0.0,0 STARLINK-3825,1 52478U 22049AD  24001.37278940  .00000778  00000-0  66955-4 0  9997,2 52478  53.2176  42.9054 0001460  87.2975 272.8184 15.08847604 91897,6917.857,95.437,540.732,538.712,0.0
